[
    {
        "Altitude(m)": 624792.799882584,
        "Argument of Periapsis(deg)": 0.0,
        "Eccentricity": 0.0,
        "Inclination(deg)": 60.0,
        "Latitude(deg)": -59.1471718839249,
        "Longitude(deg)": -45.973494685625646,
        "Mean Anomaly(deg)": -98.18179999999997,
        "RAAN(deg)": 160.0,
        "Satellite Name": "Test1 720",
        "Satellite Number": 720,
        "Semi-Major Axis(m)": 6980739.136638005,
        "Time(s)": 0
    },
    {
        "Altitude(m)": 624842.1914382282,
        "Argument of Periapsis(deg)": 0.00010418945913296404,
        "Eccentricity": 0.0,
        "Inclination(deg)": 60.0,
        "Latitude(deg)": -59.28925424355478,
        "Longitude(deg)": -44.843987269515736,
        "Mean Anomaly(deg)": -97.56169385453812,
        "RAAN(deg)": 159.99957995086024,
        "Satellite Name": "Test1 720",
        "Satellite Number": 720,
        "Semi-Major Axis(m)": 6980739.136638005,
        "Time(s)": 10
    },
    {
        "Altitude(m)": 624887.7587285287,
        "Argument of Periapsis(deg)": 0.0002083789182659281,
        "Eccentricity": 0.0,
        "Inclination(deg)": 60.0,
        "Latitude(deg)": -59.42072570962787,
        "Longitude(deg)": -43.705059326434906,
        "Mean Anomaly(deg)": -96.94158770907633,
        "RAAN(deg)": 159.9991599017205,
        "Satellite Name": "Test1 720",
        "Satellite Number": 720,
        "Semi-Major Axis(m)": 6980739.136638005,
        "Time(s)": 20
    },
    {
        "Altitude(m)": 624929.4837903819,
        "Argument of Periapsis(deg)": 0.00031256837739889213,
        "Eccentricity": 0.0,
        "Inclination(deg)": 60.0,
        "Latitude(deg)": -59.54144898121562,
        "Longitude(deg)": -42.55733317124764,
        "Mean Anomaly(deg)": -96.32148156361448,
        "RAAN(deg)": 159.99873985258077,
        "Satellite Name": "Test1 720",
        "Satellite Number": 720,
        "Semi-Major Axis(m)": 6980739.136638005,
        "Time(s)": 30
    },
    {
        "Altitude(m)": 624967.350171851,
        "Argument of Periapsis(deg)": 0.0004167578365318562,
        "Eccentricity": 0.0,
        "Inclination(deg)": 60.0,
        "Latitude(deg)": -59.65129589095814,
        "Longitude(deg)": -41.40146610376135,
        "Mean Anomaly(deg)": -95.70137541815271,
        "RAAN(deg)": 159.99831980344103,
        "Satellite Name": "Test1 720",
        "Satellite Number": 720,
        "Semi-Major Axis(m)": 6980739.136638005,
        "Time(s)": 40
    },
    {
        "Altitude(m)": 625001.3429391083,
        "Argument of Periapsis(deg)": 0.0005209472956648203,
        "Eccentricity": 0.0,
        "Inclination(deg)": 60.0,
        "Latitude(deg)": -59.7501480441584,
        "Longitude(deg)": -40.23814957194523,
        "Mean Anomaly(deg)": -95.08126927269086,
        "RAAN(deg)": 159.99789975430127,
        "Satellite Name": "Test1 720",
        "Satellite Number": 720,
        "Semi-Major Axis(m)": 6980739.136638005,
        "Time(s)": 50
    },
    {
        "Altitude(m)": 625031.4486827174,
        "Argument of Periapsis(deg)": 0.0006251367547977843,
        "Eccentricity": 0.0,
        "Inclination(deg)": 60.0,
        "Latitude(deg)": -59.837897424799586,
        "Longitude(deg)": -39.06810649757089,
        "Mean Anomaly(deg)": -94.46116312722903,
        "RAAN(deg)": 159.99747970516154,
        "Satellite Name": "Test1 720",
        "Satellite Number": 720,
        "Semi-Major Axis(m)": 6980739.136638005,
        "Time(s)": 60
    },
    {
        "Altitude(m)": 625057.655523301,
        "Argument of Periapsis(deg)": 0.0007293262139307483,
        "Eccentricity": 0.0,
        "Inclination(deg)": 60.0,
        "Latitude(deg)": -59.91444696165131,
        "Longitude(deg)": -37.892088287387864,
        "Mean Anomaly(deg)": -93.84105698176717,
        "RAAN(deg)": 159.9970596560218,
        "Satellite Name": "Test1 720",
        "Satellite Number": 720,
        "Semi-Major Axis(m)": 6980739.136638005,
        "Time(s)": 70
    },
    {
        "Altitude(m)": 625079.9531165161,
        "Argument of Periapsis(deg)": 0.0008335156730637124,
        "Eccentricity": 0.0,
        "Inclination(deg)": 60.0,
        "Latitude(deg)": -59.97971104783688,
        "Longitude(deg)": -36.71087305861521,
        "Mean Anomaly(deg)": -93.22095083630535,
        "RAAN(deg)": 159.99663960688207,
        "Satellite Name": "Test1 720",
        "Satellite Number": 720,
        "Semi-Major Axis(m)": 6980739.136638005,
        "Time(s)": 80
    },
    {
        "Altitude(m)": 625098.3326574379,
        "Argument of Periapsis(deg)": 0.0009377051321966765,
        "Eccentricity": 0.0,
        "Inclination(deg)": 60.0,
        "Latitude(deg)": -60.03361600758069,
        "Longitude(deg)": -35.525262074396835,
        "Mean Anomaly(deg)": -92.6008446908435,
        "RAAN(deg)": 159.9962195577423,
        "Satellite Name": "Test1 720",
        "Satellite Number": 720,
        "Semi-Major Axis(m)": 6980739.136638005,
        "Time(s)": 90
    },
    {
        "Altitude(m)": 625112.7868842494,
        "Argument of Periapsis(deg)": 0.0010418945913296407,
        "Eccentricity": 0.0,
        "Inclination(deg)": 60.0,
        "Latitude(deg)": -60.076100504345355,
        "Longitude(deg)": -34.336075928795125,
        "Mean Anomaly(deg)": -91.98073854538167,
        "RAAN(deg)": 159.99579950860257,
        "Satellite Name": "Test1 720",
        "Satellite Number": 720,
        "Semi-Major Axis(m)": 6980739.136638005,
        "Time(s)": 100
    },
    {
        "Altitude(m)": 625123.3100813044,
        "Argument of Periapsis(deg)": 0.0011460840504626045,
        "Eccentricity": 0.0,
        "Inclination(deg)": 60.0,
        "Latitude(deg)": -60.10711588517824,
        "Longitude(deg)": -33.14415202583769,
        "Mean Anomaly(deg)": -91.36063239991987,
        "RAAN(deg)": 159.99537945946284,
        "Satellite Name": "Test1 720",
        "Satellite Number": 720,
        "Semi-Major Axis(m)": 6980739.136638005,
        "Time(s)": 110
    },
    {
        "Altitude(m)": 625129.8980815297,
        "Argument of Periapsis(deg)": 0.0012502735095955685,
        "Eccentricity": 0.0,
        "Inclination(deg)": 60.0,
        "Latitude(deg)": -60.12662645680808,
        "Longitude(deg)": -31.950340362932153,
        "Mean Anomaly(deg)": -90.74052625445799,
        "RAAN(deg)": 159.9949594103231,
        "Satellite Name": "Test1 720",
        "Satellite Number": 720,
        "Semi-Major Axis(m)": 6980739.136638005,
        "Time(s)": 120
    },
    {
        "Altitude(m)": 625132.5482682006,
        "Argument of Periapsis(deg)": 0.0013544629687285324,
        "Eccentricity": 0.0,
        "Inclination(deg)": 60.0,
        "Latitude(deg)": -60.13460968986522,
        "Longitude(deg)": -30.75549917137469,
        "Mean Anomaly(deg)": -90.12042010899624,
        "RAAN(deg)": 159.99453936118334,
        "Satellite Name": "Test1 720",
        "Satellite Number": 720,
        "Semi-Major Axis(m)": 6980739.136638005,
        "Time(s)": 130
    },
    {
        "Altitude(m)": 625131.2595760213,
        "Argument of Periapsis(deg)": 0.0014586524278614966,
        "Eccentricity": 0.0,
        "Inclination(deg)": 60.0,
        "Latitude(deg)": -60.13105634851385,
        "Longitude(deg)": -29.560491969675688,
        "Mean Anomaly(deg)": -89.50031396353435,
        "RAAN(deg)": 159.9941193120436,
        "Satellite Name": "Test1 720",
        "Satellite Number": 720,
        "Semi-Major Axis(m)": 6980739.136638005,
        "Time(s)": 140
    },
    {
        "Altitude(m)": 625126.0324915833,
        "Argument of Periapsis(deg)": 0.0015628418869944607,
        "Eccentricity": 0.0,
        "Inclination(deg)": 60.0,
        "Latitude(deg)": -60.11597054375536,
        "Longitude(deg)": -28.366183048935838,
        "Mean Anomaly(deg)": -88.88020781807256,
        "RAAN(deg)": 159.99369926290385,
        "Satellite Name": "Test1 720",
        "Satellite Number": 720,
        "Semi-Major Axis(m)": 6980739.136638005,
        "Time(s)": 150
    },
    {
        "Altitude(m)": 625116.8690531777,
        "Argument of Periapsis(deg)": 0.0016670313461274247,
        "Eccentricity": 0.0,
        "Inclination(deg)": 60.0,
        "Latitude(deg)": -60.0893697096875,
        "Longitude(deg)": -27.17343294930169,
        "Mean Anomaly(deg)": -88.26010167261072,
        "RAAN(deg)": 159.99327921376414,
        "Satellite Name": "Test1 720",
        "Satellite Number": 720,
        "Semi-Major Axis(m)": 6980739.136638005,
        "Time(s)": 160
    },
    {
        "Altitude(m)": 625103.7728499109,
        "Argument of Periapsis(deg)": 0.0017712208052603888,
        "Eccentricity": 0.0,
        "Inclination(deg)": 60.0,
        "Latitude(deg)": -60.05128450304166,
        "Longitude(deg)": -25.983095486734076,
        "Mean Anomaly(deg)": -87.63999552714888,
        "RAAN(deg)": 159.99285916462438,
        "Satellite Name": "Test1 720",
        "Satellite Number": 720,
        "Semi-Major Axis(m)": 6980739.136638005,
        "Time(s)": 170
    },
    {
        "Altitude(m)": 625086.7490202301,
        "Argument of Periapsis(deg)": 0.001875410264393353,
        "Eccentricity": 0.0,
        "Inclination(deg)": 60.0,
        "Latitude(deg)": -60.00175862734211,
        "Longitude(deg)": -24.796013349881243,
        "Mean Anomaly(deg)": -87.01988938168704,
        "RAAN(deg)": 159.99243911548464,
        "Satellite Name": "Test1 720",
        "Satellite Number": 720,
        "Semi-Major Axis(m)": 6980739.136638005,
        "Time(s)": 180
    },
    {
        "Altitude(m)": 625065.8042497425,
        "Argument of Periapsis(deg)": 0.0019795997235263173,
        "Eccentricity": 0.0,
        "Inclination(deg)": 60.0,
        "Latitude(deg)": -59.94084858403456,
        "Longitude(deg)": -23.61301382371131,
        "Mean Anomaly(deg)": -86.39978323622525,
        "RAAN(deg)": 159.99201906634488,
        "Satellite Name": "Test1 720",
        "Satellite Number": 720,
        "Semi-Major Axis(m)": 6980739.136638005,
        "Time(s)": 190
    }
]